ONEWEB-0235             
1 48771U 21045E   25224.56371051  .00000280  00000+0  70955-3 0  9990
2 48771  87.9082 320.7439 0002128  82.6364 277.5008 13.15551009204929
ONEWEB-0242             
1 48772U 21045F   25223.79680183  .00000129  00000+0  30932-3 0  9997
2 48772  87.9080 320.8811 0002096  94.8170 265.3199 13.15546927203745
ONEWEB-0241             
1 48773U 21045G   25224.24046165  .00000073  00000+0  16011-3 0  9995
2 48773  87.9065 320.8454 0001661  87.2096 272.9225 13.15550155204846
ONEWEB-0243             
1 48774U 21045H   25224.50033925  .00000156  00000+0  38048-3 0  9991
2 48774  87.9088 320.7900 0002138  86.9886 273.1489 13.15548862204904
ONEWEB-0222             
1 48775U 21045J   25223.79918667  .00000113  00000+0  26635-3 0  9999
2 48775  87.9079 320.8840 0001847  94.5521 265.5820 13.15549659203724
ONEWEB-0244             
1 48776U 21045K   25223.82532898 -.00000028  00000+0 -10841-3 0  9991
2 48776  87.9084 320.8591 0002113  96.3490 263.7881 13.15548333204294
ONEWEB-0247             
1 48777U 21045L   25223.82216911 -.00000069  00000+0 -21703-3 0  9991
2 48777  87.9074 320.9325 0002413  75.3843 284.7555 13.15547461203732
ONEWEB-0245             
1 48778U 21045M   25223.81740678  .00000011  00000+0 -53073-5 0  9996
2 48778  87.9074 320.8967 0001749  94.2239 265.9091 13.15548264203709
